QIANFAN-41              
1 62242U 24232F   25257.21801253  .00000050  00000+0  57969-4 0  9996
2 62242  88.9967  50.2225 0015899  90.8468 269.4505 13.50969577 87163
QIANFAN-42              
1 62243U 24232G   25257.20526830  .00000245  00000+0  99614-4 0  9990
2 62243  88.9967  47.5733 0015684  25.5882 334.6084 14.24348224 88625
QIANFAN-43              
1 62244U 24232H   25257.21392360  .00000054  00000+0  64649-4 0  9999
2 62244  88.9971  50.2843 0017423  95.4769 264.8370 13.50966921 55777
QIANFAN-44              
1 62245U 24232J   25257.20157707  .00000069  00000+0  88188-4 0  9993
2 62245  88.9970  50.0977 0015640  92.8914 267.4028 13.50972288 87244
QIANFAN-45              
1 62246U 24232K   25257.24271315  .00000055  00000+0  65746-4 0  9990
2 62246  88.9973  50.2369 0016276  92.4696 267.8319 13.50969046 87171
QIANFAN-46              
1 62247U 24232L   25257.19332081  .00000049  00000+0  56635-4 0  9993
2 62247  88.9969  50.3146 0016361  97.4760 262.8251 13.50969691 87124
QIANFAN-47              
1 62248U 24232M   25257.19744743  .00000058  00000+0  70854-4 0  9995
2 62248  88.9965  50.2507 0016782  96.6960 263.6102 13.50963219 87158
QIANFAN-48              
1 62249U 24232N   25257.23449220  .00000072  00000+0  92207-4 0  9995
2 62249  88.9969  50.2453 0019034  98.9922 261.3385 13.50966822 87161
